ONEWEB-0328             
1 49197U 21083M   24361.71232262  .00000303  00000+0  79488-3 0  9999
2 49197  87.8910  67.1099 0001888 106.0852 254.0485 13.13472014161635
ONEWEB-0331             
1 49198U 21083N   24361.48756598  .00000059  00000+0  11633-3 0  9993
2 49198  87.9110  82.4359 0002102 102.0462 258.0906 13.18684611159149
ONEWEB-0333             
1 49199U 21083P   24361.70754417  .00000253  00000+0  65882-3 0  9998
2 49199  87.8921  67.1581 0001667 106.0210 254.1103 13.13472192161644
ONEWEB-0334             
1 49200U 21083Q   24361.53999379  .00000063  00000+0  12411-3 0  9999
2 49200  87.9241  21.4359 0000902  76.7837 283.3396 13.20773736165826
ONEWEB-0335             
1 49201U 21083R   24361.70279694  .00000175  00000+0  44547-3 0  9999
2 49201  87.8921  67.1475 0001995  97.5726 262.5629 13.13471339161659
ONEWEB-0336             
1 49202U 21083S   24361.74880963 -.00000415  00000+0 -11722-2 0  9998
2 49202  87.8921  67.1325 0001716  97.2236 262.9089 13.13469154161665
ONEWEB-0337             
1 49203U 21083T   24361.75820484 -.00000263  00000+0 -75553-3 0  9996
2 49203  87.8922  67.1294 0001941 104.4313 255.7031 13.13470866161668
ONEWEB-0338             
1 49204U 21083U   24361.62284479  .00000072  00000+0  14532-3 0  9997
2 49204  87.9247  21.4143 0001423  96.1545 263.9750 13.20770398167155
ONEWEB-0339             
1 49205U 21083V   24361.69325710 -.00000094  00000+0 -29103-3 0  9995
2 49205  87.8919  67.1341 0001835 106.7346 253.3985 13.13468353161639
ONEWEB-0340             
1 49206U 21083W   24361.47333162  .00000066  00000+0  13494-3 0  9995
2 49206  87.9111  82.4351 0001901 102.6989 257.4355 13.18685448159104
ONEWEB-0341             
1 49207U 21083X   24361.48123859  .00000077  00000+0  16313-3 0  9992
2 49207  87.9111  82.4451 0002159 119.5496 240.5851 13.18685723159124
ONEWEB-0342             
1 49208U 21083Y   24361.62917789  .00000191  00000+0  43703-3 0  9992
2 49208  87.9239  21.4070 0001687  93.5114 266.6212 13.20770576167122
ONEWEB-0343             
1 49209U 21083Z   24361.47649509  .00000216  00000+0  51385-3 0  9991
2 49209  87.9103  82.4418 0001885 124.5933 235.5377 13.18686609159173
ONEWEB-0344             
1 49210U 21083AA  24361.73611858  .00000095  00000+0  22643-3 0  9998
2 49210  87.8924  67.1477 0002141 110.1078 250.0282 13.13467846161644
ONEWEB-0345             
1 49211U 21083AB  24361.75357884 -.00000324  00000+0 -92287-3 0  9995
2 49211  87.8919  67.1137 0002253 110.8661 249.2709 13.13471007161650
ONEWEB-0346             
1 49212U 21083AC  24361.48598686  .00000127  00000+0  28937-3 0  9993
2 49212  87.9110  82.4533 0002063  97.1009 263.0358 13.18685464159118
ONEWEB-0348             
1 49213U 21083AD  24361.54394904  .00000074  00000+0  15007-3 0  9993
2 49213  87.9248  21.4142 0002459  94.6949 265.4465 13.20770514167145
ONEWEB-0350             
1 49214U 21083AE  24361.68692025 -.00000219  00000+0 -63503-3 0  9991
2 49214  87.8920  67.1184 0002078 109.2236 250.9118 13.13471534161672
ONEWEB-0351             
1 49215U 21083AF  24361.53749045  .00000075  00000+0  15233-3 0  9996
2 49215  87.9243  21.4060 0001184 119.1441 240.9811 13.20770796165801
ONEWEB-0352             
1 49216U 21083AG  24361.43933793 -.00000098  00000+0 -30317-3 0  9998
2 49216  87.8924  67.2042 0001543 117.1554 242.9733 13.13468542160431
ONEWEB-0354             
1 49217U 21083AH  24361.48714313  .00000125  00000+0  27476-3 0  9990
2 49217  87.9247  21.4083 0002127 100.6405 259.4968 13.20772121165830
ONEWEB-0355             
1 49218U 21083AJ  24361.69803227  .00000013  00000+0  96010-6 0  9996
2 49218  87.8923  67.1516 0001796 109.4013 250.7310 13.13471615161648
ONEWEB-0357             
1 49219U 21083AK  24361.48397238  .00000107  00000+0  23052-3 0  9991
2 49219  87.9244  21.4208 0001725  99.2381 260.8948 13.20770342165834
ONEWEB-0332             
1 49279U 21090A   24361.59872439 -.00000164  00000+0 -47594-3 0  9990
2 49279  87.8995  36.6214 0001501  92.9106 267.2195 13.14502858156950
ONEWEB-0347             
1 49280U 21090B   24361.55025158  .00000129  00000+0  28576-3 0  9994
2 49280  87.9246  21.4113 0001560  82.1078 278.0233 13.20769657160076
ONEWEB-0349             
1 49281U 21090C   24361.50607224  .00000047  00000+0  83877-4 0  9995
2 49281  87.9249  21.4231 0001763  90.7424 269.3911 13.20771364158853
ONEWEB-0353             
1 49282U 21090D   24361.66690122 -.00000197  00000+0 -56662-3 0  9991
2 49282  87.8996  36.5935 0001525  92.0873 268.0431 13.14501322158254
ONEWEB-0356             
1 49283U 21090E   24361.58024872  .00000122  00000+0  26691-3 0  9991
2 49283  87.9248  21.4010 0002435  72.9502 287.1897 13.20770073160158
ONEWEB-0358             
1 49284U 21090F   24361.53447313  .00000044  00000+0  75435-4 0  9990
2 49284  87.9248  21.3985 0002076  90.9170 269.2201 13.20770051159582
ONEWEB-0359             
1 49285U 21090G   24361.53132031 -.00000008  00000+0 -52086-4 0  9998
2 49285  87.9246  21.4142 0002168 101.8239 258.3137 13.20770482159560
ONEWEB-0360             
1 49286U 21090H   24361.59760644 -.00000001  00000+0 -34495-4 0  9999
2 49286  87.9246  21.4063 0001943  97.2353 262.9001 13.20770310160178
ONEWEB-0361             
1 49287U 21090J   24361.57866798  .00000116  00000+0  25446-3 0  9995
2 49287  87.9246  21.4052 0001869  88.4370 271.6977 13.20770229160162
ONEWEB-0362             
1 49288U 21090K   24361.71198007  .00000049  00000+0  90954-4 0  9995
2 49288  87.9168  51.8565 0001776 108.5414 251.5911 13.19724132156847
ONEWEB-0363             
1 49289U 21090L   24361.44293530  .00000003  00000+0 -23320-4 0  9997
2 49289  87.9247  21.4272 0002153  85.2923 274.8456 13.20770733159328
ONEWEB-0364             
1 49290U 21090M   24361.55655323  .00000108  00000+0  23256-3 0  9995
2 49290  87.9247  21.4324 0001839  88.2157 271.9187 13.20770231161291
ONEWEB-0365             
1 49291U 21090N   24361.41819281  .00000060  00000+0  11823-3 0  9990
2 49291  87.9162  51.8829 0001707 100.5400 259.5925 13.19724214155493
ONEWEB-0366             
1 49292U 21090P   24361.51150756 -.00000118  00000+0 -35332-3 0  9994
2 49292  87.8997  36.6353 0001808  93.4861 266.6475 13.14503049156929
ONEWEB-0367             
1 49293U 21090Q   24361.51711909  .00000026  00000+0  32906-4 0  9999
2 49293  87.9247  21.4074 0001700  93.1247 267.0081 13.20770796158851
ONEWEB-0368             
1 49294U 21090R   24361.49028909  .00000082  00000+0  17021-3 0  9990
2 49294  87.9247  21.4444 0001694  65.0111 295.1198 13.20770568160001
ONEWEB-0369             
1 49295U 21090S   24361.56508583  .00000097  00000+0  21053-3 0  9996
2 49295  87.9169  51.8698 0001720  98.6658 261.4669 13.19723920155507
ONEWEB-0370             
1 49296U 21090T   24361.52658158  .00000012  00000+0 -14361-5 0  9991
2 49296  87.9248  21.4103 0001943 105.4720 254.6628 13.20770968158894
ONEWEB-0371             
1 49297U 21090U   24361.64880293  .00000100  00000+0  21660-3 0  9997
2 49297  87.9166  51.8428 0001737 102.3658 257.7669 13.19724393156849
ONEWEB-0372             
1 49298U 21090V   24361.59115249  .00000058  00000+0  11185-3 0  9997
2 49298  87.9248  21.4063 0001684  91.4769 268.6557 13.20770395160174
ONEWEB-0373             
1 49299U 21090W   24361.54237138  .00000062  00000+0  12138-3 0  9999
2 49299  87.9246  21.4293 0001974  86.8464 273.2895 13.20770906160052
ONEWEB-0374             
1 49300U 21090X   24361.57493367  .00000052  00000+0  10700-3 0  9995
2 49300  87.8997  36.6056 0001952  79.9522 280.1828 13.14504303156930
ONEWEB-0375             
1 49301U 21090Y   24361.60550216  .00000064  00000+0  12668-3 0  9995
2 49301  87.9244  21.3936 0002434  85.4184 274.7227 13.20771276160857
ONEWEB-0376             
1 49302U 21090Z   24361.57140066  .00000072  00000+0  14797-3 0  9994
2 49302  87.9163  51.8543 0001540 100.2625 259.8681 13.19724268155548
ONEWEB-0377             
1 49303U 21090AA  24361.59144406  .00000030  00000+0  40970-4 0  9996
2 49303  87.9246  21.3892 0002054  97.9915 262.1451 13.20771232160830
ONEWEB-0378             
1 49304U 21090AB  24361.53777015  .00000056  00000+0  10630-3 0  9996
2 49304  87.9250  21.4054 0001918  89.9203 270.2150 13.20770641158810
ONEWEB-0379             
1 49305U 21090AC  24361.64629980  .00000153  00000+0  37686-3 0  9994
2 49305  87.8996  36.5953 0001770  94.3474 265.7858 13.14502410158249
ONEWEB-0380             
1 49306U 21090AD  24361.56825057  .00000100  00000+0  21854-3 0  9991
2 49306  87.9170  51.8715 0001882  98.2299 261.9047 13.19724494155511
ONEWEB-0381             
1 49307U 21090AE  24361.51236355 -.00000358  00000+0 -91263-3 0  9992
2 49307  87.9249  21.4124 0002071  94.4249 265.7121 13.20775096158851
ONEWEB-0382             
1 49308U 21090AF  24361.57551368  .00000059  00000+0  11431-3 0  9998
2 49308  87.9248  21.3955 0002031  81.9131 278.2233 13.20770402160165
ONEWEB-0383             
1 49309U 21090AG  24361.56383339  .00000248  00000+0  63367-3 0  9994
2 49309  87.8995  36.5958 0001772  89.4686 270.6646 13.14501404156968
ONEWEB-0384             
1 49310U 21090AH  24361.57235892  .00000029  00000+0  40118-4 0  9994
2 49310  87.9248  21.4105 0002060  79.5048 280.6317 13.20770149160177
ONEWEB-0385             
1 49311U 21090AJ  24361.56762144  .00000105  00000+0  22635-3 0  9997
2 49311  87.9247  21.4122 0001869  88.5157 271.6190 13.20771950160151
ONEWEB-0386             
1 49312U 21090AK  24361.58499164  .00000075  00000+0  15269-3 0  9990
2 49312  87.9241  21.3908 0001934  84.5284 275.6069 13.20771106160160
ONEWEB-0387             
1 49313U 21090AL  24361.56920009  .00000054  00000+0  10023-3 0  9996
2 49313  87.9248  21.4689 0002172  91.9742 268.1640 13.20771342160165
ONEWEB-0388             
1 49314U 21090AM  24361.56351538  .00000105  00000+0  22900-3 0  9996
2 49314  87.9168  51.8767 0001869  95.1984 264.9362 13.19724574155507
